KUIPER-00165            
1 65778U 25217S   25334.58335648 -.00002207  00000+0 -58529-4 0  9994
2 65778  51.8701 123.2467 0004100 300.4969  54.5571 15.32034695  4377
KUIPER-00166            
1 65779U 25217T   25334.62720118  .00040444  00000+0  10614-2 0  9994
2 65779  51.8705 122.8111 0003985 279.2941  80.7595 15.38237383 10184
KUIPER-00167            
1 65780U 25217U   25334.58335648 -.00024667  00000+0 -15337-2 0  9999
2 65780  51.8807 126.2263 0011309 301.7155 350.3234 15.08826311  4273
KUIPER-00168            
1 65781U 25217V   25334.59726991  .00034348  00000+0  88709-3 0  9995
2 65781  51.8708 122.6218 0001910 229.8127 130.2694 15.38811778 10186
KUIPER-00169            
1 65782U 25217W   25333.84739198  .00048645  00000+0  12673-2 0  9997
2 65782  51.8697 126.5879 0003080 282.8866  77.1776 15.38382509 10061
KUIPER-00170            
1 65783U 25217X   25334.58335648 -.00865096  00000+0 -33785-1 0  9997
2 65783  51.8699 123.8499 0007117 314.1120 120.3221 15.28082548  5642
KUIPER-00171            
1 65784U 25217Y   25334.62683607  .00114550  00000+0  10377-2 0  9997
2 65784  51.8571 117.5951 0009147 319.6570  40.3750 15.67144961 10251
KUIPER-00172            
1 65785U 25217Z   25334.41522666  .00049230  00000+0  12737-2 0  9996
2 65785  51.8689 123.6471 0004088 286.1346  73.9191 15.38587001 10159
KUIPER-00173            
1 65786U 25217AA  25334.62108573  .00039803  00000+0  10908-2 0  9990
2 65786  51.8693 122.7688 0004474 298.5657  61.4878 15.36902065 10182
KUIPER-00174            
1 65787U 25217AB  25334.14989930  .00078958  00000+0  20619-2 0  9996
2 65787  51.8700 124.8704 0002624 224.2105 135.8673 15.38091958 10117
KUIPER-00176            
1 65788U 25217AC  25334.58335648 -.01273827  00000+0 -72923-1 0  9995
2 65788  51.8793 124.8691 0002467 274.4833 338.1040 15.15410669  4539
KUIPER-00101            
1 65947U 25228A   25334.58335648 -.01039077  00000+0 -65899-1 0  9995
2 65947  51.9045  81.3402 0003534 330.3355 269.9168 15.11168179  5064
KUIPER-00113            
1 65948U 25228B   25334.58335648 -.00854557  00000+0 -43339-1 0  9998
2 65948  51.8811  79.7037 0006627 316.4182 300.6435 15.18902558  4141
KUIPER-00117            
1 65949U 25228C   25334.58335648 -.00421290  00000+0 -22754-1 0  9991
2 65949  51.8855  80.4072 0009330 326.1980 303.1705 15.16204577  5138
KUIPER-00121            
1 65950U 25228D   25334.09728471  .00022228  00000+0  64816-3 0  9992
2 65950  51.8797  81.5721 0005840 244.4768 115.5614 15.35266713  8471
KUIPER-00122            
1 65951U 25228E   25334.58335648 -.01180665  00000+0 -95225-1 0  9996
2 65951  51.8911  82.6755 0006652 358.3834 313.9510 15.02711844  4929
KUIPER-00123            
1 65952U 25228F   25334.58335648 -.00001397  00000+0 -84932-4 0  9996
2 65952  51.8919  82.6837 0007158 330.4530 233.0966 15.01929367  5462
KUIPER-00124            
1 65953U 25228G   25334.58335648 -.00749291  00000+0 -26082-1 0  9998
2 65953  51.8811  79.4076 0004093 346.0081  98.0017 15.31457614  5136
KUIPER-00125            
1 65954U 25228H   25334.60818844  .00038256  00000+0  10860-2 0  9994
2 65954  51.8792  78.9883 0006063 322.0293  38.0265 15.35817365  8558
KUIPER-00126            
1 65955U 25228J   25334.58335648 -.00062427  00000+0 -38579-2 0  9994
2 65955  51.9022  81.4150 0006466 333.0875 150.3467 15.09542856  5928
KUIPER-00127            
1 65956U 25228K   25334.58335648 -.01104453  00000+0 -57627-1 0  9996
2 65956  51.8898  80.3373 0004391 344.0936  20.5514 15.18189905  2918
KUIPER-00128            
1 65957U 25228L   25334.58335648  .00005324  00000+0  19534-3 0  9998
2 65957  51.8813  79.2205 0006014 322.0472 198.4196 15.29563762  5207
KUIPER-00129            
1 65958U 25228M   25334.58335648  .00021258  00000+0  60938-3 0  9997
2 65958  51.8787  79.0826 0006066 313.5648 286.2994 15.35831014  5591
KUIPER-00130            
1 65959U 25228N   25334.48533572  .00035730  00000+0  10332-2 0  9995
2 65959  51.8790  79.6630 0005917 329.8320  30.2325 15.35270314  8538
KUIPER-00134            
1 65960U 25228P   25334.55183273  .00028004  00000+0  81447-3 0  9996
2 65960  51.8783  79.3578 0006463 329.7094  30.3517 15.35210641  8546
KUIPER-00135            
1 65961U 25228Q   25334.29273914 -.00122653  00000+0 -37165-2 0  9994
2 65961  51.8801  80.6300 0004577 330.1653  29.9070 15.34031902  8501
KUIPER-00136            
1 65962U 25228R   25334.60352478  .00020361  00000+0  58367-3 0  9992
2 65962  51.8790  78.9661 0005785 315.8735  44.1789 15.35860925  8559
KUIPER-00137            
1 65963U 25228S   25334.55228819  .00051922  00000+0  14962-2 0  9997
2 65963  51.8800  79.3721 0006017 332.5946  27.4722 15.35209026  8542
KUIPER-00138            
1 65964U 25228T   25334.55615081  .00042664  00000+0  12316-2 0  9993
2 65964  51.8804  79.3883 0007537 332.1580  27.9002 15.35231309  8549
KUIPER-00140            
1 65965U 25228U   25334.49547651  .00047611  00000+0  13945-2 0  9990
2 65965  51.8803  79.7351 0007198 330.3444  29.7133 15.34728427  8530
KUIPER-00141            
1 65966U 25228V   25334.54216759  .00034804  00000+0  98976-3 0  9997
2 65966  51.8785  79.2965 0005951 321.2861  38.7698 15.35806980  8542
KUIPER-00146            
1 65967U 25228W   25334.54902036  .00040201  00000+0  11594-2 0  9996
2 65967  51.8808  79.3504 0006592 322.0925  37.9596 15.35294171  8542
KUIPER-00149            
1 65968U 25228X   25334.60327941  .00019723  00000+0  56510-3 0  9993
2 65968  51.8790  78.9597 0005534 317.6719  42.3840 15.35898315  8559
KUIPER-00154            
1 65969U 25228Y   25334.60588441  .00025668  00000+0  74140-3 0  9992
2 65969  51.8784  78.9769 0005719 317.0400  43.0139 15.35480105  8553
KUIPER-00157            
1 65970U 25228Z   25334.55300679  .00034855  00000+0  10096-2 0  9990
2 65970  51.8797  79.3759 0006821 334.3958  25.6689 15.35224507  8545
